CCSDS_OMM_VERS = 2.0
CREATION_DATE  = 
ORIGINATOR     = 

OBJECT_NAME    = UNKNOWN
OBJECT_ID      = 
CENTER_NAME    = EARTH
REF_FRAME      = TEME
TIME_SYSTEM    = UTC
MEAN_ELEMENT_THEORY = SGP/SGP4

EPOCH          = 2026-03-15T14:32:53.302272
MEAN_MOTION    = 14.86700459
ECCENTRICITY   = .0007881
INCLINATION    = 98.3860
RA_OF_ASC_NODE = 309.0176
ARG_OF_PERICENTER = 182.2411
MEAN_ANOMALY   = 177.8769

EPHEMERIS_TYPE = 0
CLASSIFICATION_TYPE = U
NORAD_CAT_ID   = 89184
ELEMENT_SET_NO = 999
REV_AT_EPOCH   = 50594
BSTAR          = .23734E-2
MEAN_MOTION_DOT = .21108E-3
MEAN_MOTION_DDOT = 0

CCSDS_OMM_VERS = 2.0
CREATION_DATE  = 
ORIGINATOR     = 

OBJECT_NAME    = UNKNOWN
OBJECT_ID      = 
CENTER_NAME    = EARTH
REF_FRAME      = TEME
TIME_SYSTEM    = UTC
MEAN_ELEMENT_THEORY = SGP/SGP4

EPOCH          = 2026-03-13T20:46:17.790816
MEAN_MOTION    = 13.91709240
ECCENTRICITY   = .0226528
INCLINATION    = 98.7709
RA_OF_ASC_NODE = 306.2025
ARG_OF_PERICENTER = 236.2583
MEAN_ANOMALY   = 121.6809

EPHEMERIS_TYPE = 0
CLASSIFICATION_TYPE = U
NORAD_CAT_ID   = 89213
ELEMENT_SET_NO = 999
REV_AT_EPOCH   = 46534
BSTAR          = .33875E-3
MEAN_MOTION_DOT = .488E-5
MEAN_MOTION_DDOT = 0

CCSDS_OMM_VERS = 2.0
CREATION_DATE  = 
ORIGINATOR     = 

OBJECT_NAME    = UNKNOWN
OBJECT_ID      = 
CENTER_NAME    = EARTH
REF_FRAME      = TEME
TIME_SYSTEM    = UTC
MEAN_ELEMENT_THEORY = SGP/SGP4

EPOCH          = 2026-03-14T19:58:12.291744
MEAN_MOTION    = 9.27385240
ECCENTRICITY   = .2822948
INCLINATION    = 62.4756
RA_OF_ASC_NODE = 242.7729
ARG_OF_PERICENTER = 109.2702
MEAN_ANOMALY   = 283.2314

EPHEMERIS_TYPE = 0
CLASSIFICATION_TYPE = U
NORAD_CAT_ID   = 89251
ELEMENT_SET_NO = 999
REV_AT_EPOCH   = 38171
BSTAR          = .11545E-1
MEAN_MOTION_DOT = .20342E-3
MEAN_MOTION_DDOT = 0

CCSDS_OMM_VERS = 2.0
CREATION_DATE  = 
ORIGINATOR     = 

OBJECT_NAME    = UNKNOWN
OBJECT_ID      = 
CENTER_NAME    = EARTH
REF_FRAME      = TEME
TIME_SYSTEM    = UTC
MEAN_ELEMENT_THEORY = SGP/SGP4

EPOCH          = 2026-03-15T05:45:52.647552
MEAN_MOTION    = 14.43340238
ECCENTRICITY   = .001112
INCLINATION    = 98.1620
RA_OF_ASC_NODE = 69.7401
ARG_OF_PERICENTER = 231.9467
MEAN_ANOMALY   = 128.0721

EPHEMERIS_TYPE = 0
CLASSIFICATION_TYPE = U
NORAD_CAT_ID   = 89261
ELEMENT_SET_NO = 999
REV_AT_EPOCH   = 54715
BSTAR          = .28506E-3
MEAN_MOTION_DOT = .92E-5
MEAN_MOTION_DDOT = 0

CCSDS_OMM_VERS = 2.0
CREATION_DATE  = 
ORIGINATOR     = 

OBJECT_NAME    = UNKNOWN
OBJECT_ID      = 
CENTER_NAME    = EARTH
REF_FRAME      = TEME
TIME_SYSTEM    = UTC
MEAN_ELEMENT_THEORY = SGP/SGP4

EPOCH          = 2026-03-14T01:49:00.409152
MEAN_MOTION    = 12.96288690
ECCENTRICITY   = .0032291
INCLINATION    = 90.2518
RA_OF_ASC_NODE = 9.4039
ARG_OF_PERICENTER = 27.9024
MEAN_ANOMALY   = 332.3819

EPHEMERIS_TYPE = 0
CLASSIFICATION_TYPE = U
NORAD_CAT_ID   = 89349
ELEMENT_SET_NO = 999
REV_AT_EPOCH   = 49058
BSTAR          = -.2725E-3
MEAN_MOTION_DOT = -.7E-6
MEAN_MOTION_DDOT = 0

CCSDS_OMM_VERS = 2.0
CREATION_DATE  = 
ORIGINATOR     = 

OBJECT_NAME    = UNKNOWN
OBJECT_ID      = 
CENTER_NAME    = EARTH
REF_FRAME      = TEME
TIME_SYSTEM    = UTC
MEAN_ELEMENT_THEORY = SGP/SGP4

EPOCH          = 2026-03-14T19:49:14.294496
MEAN_MOTION    = 13.63532469
ECCENTRICITY   = .0042993
INCLINATION    = 100.4743
RA_OF_ASC_NODE = 100.9900
ARG_OF_PERICENTER = 251.4603
MEAN_ANOMALY   = 108.1863

EPHEMERIS_TYPE = 0
CLASSIFICATION_TYPE = U
NORAD_CAT_ID   = 89379
ELEMENT_SET_NO = 999
REV_AT_EPOCH   = 59332
BSTAR          = .5038E-2
MEAN_MOTION_DOT = .3956E-4
MEAN_MOTION_DDOT = 0

CCSDS_OMM_VERS = 2.0
CREATION_DATE  = 
ORIGINATOR     = 

OBJECT_NAME    = UNKNOWN
OBJECT_ID      = 
CENTER_NAME    = EARTH
REF_FRAME      = TEME
TIME_SYSTEM    = UTC
MEAN_ELEMENT_THEORY = SGP/SGP4

EPOCH          = 2026-03-11T21:23:34.645344
MEAN_MOTION    = 12.01554105
ECCENTRICITY   = .0224774
INCLINATION    = 102.3828
RA_OF_ASC_NODE = 39.1894
ARG_OF_PERICENTER = 333.9759
MEAN_ANOMALY   = 50.0350

EPHEMERIS_TYPE = 0
CLASSIFICATION_TYPE = U
NORAD_CAT_ID   = 89395
ELEMENT_SET_NO = 999
REV_AT_EPOCH   = 53545
BSTAR          = .3253E-2
MEAN_MOTION_DOT = .246E-5
MEAN_MOTION_DDOT = 0

CCSDS_OMM_VERS = 2.0
CREATION_DATE  = 
ORIGINATOR     = 

OBJECT_NAME    = UNKNOWN
OBJECT_ID      = 
CENTER_NAME    = EARTH
REF_FRAME      = TEME
TIME_SYSTEM    = UTC
MEAN_ELEMENT_THEORY = SGP/SGP4

EPOCH          = 2026-03-11T01:41:48.276960
MEAN_MOTION    = 12.98894474
ECCENTRICITY   = .0031792
INCLINATION    = 90.2525
RA_OF_ASC_NODE = 7.8144
ARG_OF_PERICENTER = 352.2576
MEAN_ANOMALY   = 22.8688

EPHEMERIS_TYPE = 0
CLASSIFICATION_TYPE = U
NORAD_CAT_ID   = 89403
ELEMENT_SET_NO = 999
REV_AT_EPOCH   = 48929
BSTAR          = .48242E-2
MEAN_MOTION_DOT = .1439E-4
MEAN_MOTION_DDOT = 0

CCSDS_OMM_VERS = 2.0
CREATION_DATE  = 
ORIGINATOR     = 

OBJECT_NAME    = UNKNOWN
OBJECT_ID      = 
CENTER_NAME    = EARTH
REF_FRAME      = TEME
TIME_SYSTEM    = UTC
MEAN_ELEMENT_THEORY = SGP/SGP4

EPOCH          = 2026-03-15T13:09:10.093536
MEAN_MOTION    = 9.34961963
ECCENTRICITY   = .285172
INCLINATION    = 83.9679
RA_OF_ASC_NODE = 127.3579
ARG_OF_PERICENTER = 262.2724
MEAN_ANOMALY   = 64.9455

EPHEMERIS_TYPE = 0
CLASSIFICATION_TYPE = U
NORAD_CAT_ID   = 89484
ELEMENT_SET_NO = 999
REV_AT_EPOCH   = 36398
BSTAR          = .67959E-1
MEAN_MOTION_DOT = .222355E-2
MEAN_MOTION_DDOT = 0

CCSDS_OMM_VERS = 2.0
CREATION_DATE  = 
ORIGINATOR     = 

OBJECT_NAME    = UNKNOWN
OBJECT_ID      = 
CENTER_NAME    = EARTH
REF_FRAME      = TEME
TIME_SYSTEM    = UTC
MEAN_ELEMENT_THEORY = SGP/SGP4

EPOCH          = 2026-03-13T23:34:30.097056
MEAN_MOTION    = 14.16848764
ECCENTRICITY   = .0083422
INCLINATION    = 99.0156
RA_OF_ASC_NODE = 148.0985
ARG_OF_PERICENTER = 141.4381
MEAN_ANOMALY   = 219.2792

EPHEMERIS_TYPE = 0
CLASSIFICATION_TYPE = U
NORAD_CAT_ID   = 89493
ELEMENT_SET_NO = 999
REV_AT_EPOCH   = 47686
BSTAR          = .15048E-2
MEAN_MOTION_DOT = .3076E-4
MEAN_MOTION_DDOT = 0

CCSDS_OMM_VERS = 2.0
CREATION_DATE  = 
ORIGINATOR     = 

OBJECT_NAME    = UNKNOWN
OBJECT_ID      = 
CENTER_NAME    = EARTH
REF_FRAME      = TEME
TIME_SYSTEM    = UTC
MEAN_ELEMENT_THEORY = SGP/SGP4

EPOCH          = 2026-03-09T04:01:53.466816
MEAN_MOTION    = 14.16750923
ECCENTRICITY   = .0084131
INCLINATION    = 99.0154
RA_OF_ASC_NODE = 143.0914
ARG_OF_PERICENTER = 154.9361
MEAN_ANOMALY   = 205.5933

EPHEMERIS_TYPE = 0
CLASSIFICATION_TYPE = U
NORAD_CAT_ID   = 89494
ELEMENT_SET_NO = 999
REV_AT_EPOCH   = 47603
BSTAR          = .15898E-2
MEAN_MOTION_DOT = .3248E-4
MEAN_MOTION_DDOT = 0

CCSDS_OMM_VERS = 2.0
CREATION_DATE  = 
ORIGINATOR     = 

OBJECT_NAME    = UNKNOWN
OBJECT_ID      = 
CENTER_NAME    = EARTH
REF_FRAME      = TEME
TIME_SYSTEM    = UTC
MEAN_ELEMENT_THEORY = SGP/SGP4

EPOCH          = 2026-03-15T11:50:19.720320
MEAN_MOTION    = 12.96150423
ECCENTRICITY   = .00326317
INCLINATION    = 90.2344
RA_OF_ASC_NODE = 345.8682
ARG_OF_PERICENTER = 7.4794
MEAN_ANOMALY   = 352.6806

EPHEMERIS_TYPE = 0
CLASSIFICATION_TYPE = U
NORAD_CAT_ID   = 270000
ELEMENT_SET_NO = 999
REV_AT_EPOCH   = 29795
BSTAR          = .12896069E-2
MEAN_MOTION_DOT = .376E-5
MEAN_MOTION_DDOT = 0

CCSDS_OMM_VERS = 2.0
CREATION_DATE  = 
ORIGINATOR     = 

OBJECT_NAME    = UNKNOWN
OBJECT_ID      = 
CENTER_NAME    = EARTH
REF_FRAME      = TEME
TIME_SYSTEM    = UTC
MEAN_ELEMENT_THEORY = SGP/SGP4

EPOCH          = 2026-02-18T12:15:25.310304
MEAN_MOTION    = 12.45696817
ECCENTRICITY   = .00435848
INCLINATION    = 101.8188
RA_OF_ASC_NODE = 161.4482
ARG_OF_PERICENTER = 88.9301
MEAN_ANOMALY   = 271.6760

EPHEMERIS_TYPE = 0
CLASSIFICATION_TYPE = U
NORAD_CAT_ID   = 270001
ELEMENT_SET_NO = 999
REV_AT_EPOCH   = 28337
BSTAR          = .47928676E-3
MEAN_MOTION_DOT = .25E-6
MEAN_MOTION_DDOT = 0

CCSDS_OMM_VERS = 2.0
CREATION_DATE  = 
ORIGINATOR     = 

OBJECT_NAME    = UNKNOWN
OBJECT_ID      = 
CENTER_NAME    = EARTH
REF_FRAME      = TEME
TIME_SYSTEM    = UTC
MEAN_ELEMENT_THEORY = SGP/SGP4

EPOCH          = 2026-03-13T07:57:40.703040
MEAN_MOTION    = 13.06838060
ECCENTRICITY   = .05043392
INCLINATION    = 99.6486
RA_OF_ASC_NODE = 107.3357
ARG_OF_PERICENTER = 30.5722
MEAN_ANOMALY   = 332.3785

EPHEMERIS_TYPE = 0
CLASSIFICATION_TYPE = U
NORAD_CAT_ID   = 270003
ELEMENT_SET_NO = 999
REV_AT_EPOCH   = 29917
BSTAR          = .24369685E-2
MEAN_MOTION_DOT = .1463E-4
MEAN_MOTION_DDOT = 0

CCSDS_OMM_VERS = 2.0
CREATION_DATE  = 
ORIGINATOR     = 

OBJECT_NAME    = UNKNOWN
OBJECT_ID      = 
CENTER_NAME    = EARTH
REF_FRAME      = TEME
TIME_SYSTEM    = UTC
MEAN_ELEMENT_THEORY = SGP/SGP4

EPOCH          = 2026-03-15T15:44:10.829760
MEAN_MOTION    = 12.23877405
ECCENTRICITY   = .01624519
INCLINATION    = 101.7103
RA_OF_ASC_NODE = 218.0381
ARG_OF_PERICENTER = 350.7468
MEAN_ANOMALY   = 9.0607

EPHEMERIS_TYPE = 0
CLASSIFICATION_TYPE = U
NORAD_CAT_ID   = 270004
ELEMENT_SET_NO = 999
REV_AT_EPOCH   = 28154
BSTAR          = .11657587E-2
MEAN_MOTION_DOT = .91E-6
MEAN_MOTION_DDOT = 0

CCSDS_OMM_VERS = 2.0
CREATION_DATE  = 
ORIGINATOR     = 

OBJECT_NAME    = UNKNOWN
OBJECT_ID      = 
CENTER_NAME    = EARTH
REF_FRAME      = TEME
TIME_SYSTEM    = UTC
MEAN_ELEMENT_THEORY = SGP/SGP4

EPOCH          = 2026-03-14T18:59:11.707872
MEAN_MOTION    = 12.16847083
ECCENTRICITY   = .03513944
INCLINATION    = 103.0741
RA_OF_ASC_NODE = 270.7999
ARG_OF_PERICENTER = 9.4860
MEAN_ANOMALY   = 351.2606

EPHEMERIS_TYPE = 0
CLASSIFICATION_TYPE = U
NORAD_CAT_ID   = 270005
ELEMENT_SET_NO = 999
REV_AT_EPOCH   = 27881
BSTAR          = .16962946E-1
MEAN_MOTION_DOT = .2E-4
MEAN_MOTION_DDOT = 0

